[{"OBJECT_NAME":"KUIPER-00059","OBJECT_ID":"2025-134V","EPOCH":"2026-03-09T17:04:14.081376","MEAN_MOTION":14.79930671,"ECCENTRICITY":9.053e-5,"INCLINATION":51.8998,"RA_OF_ASC_NODE":220.4892,"ARG_OF_PERICENTER":151.7188,"MEAN_ANOMALY":208.3824,"EPHEMERIS_TYPE":0,"CLASSIFICATION_TYPE":"U","NORAD_CAT_ID":64519,"ELEMENT_SET_NO":999,"REV_AT_EPOCH":4025,"BSTAR":0.00030289099,"MEAN_MOTION_DOT":2.088e-5,"MEAN_MOTION_DDOT":0},{"OBJECT_NAME":"COSMOS 2251 DEB","OBJECT_ID":"1993-036DQ","EPOCH":"2026-03-09T22:46:14.377728","MEAN_MOTION":14.7753798,"ECCENTRICITY":0.00154162,"INCLINATION":74.092,"RA_OF_ASC_NODE":351.6782,"ARG_OF_PERICENTER":258.0076,"MEAN_ANOMALY":222.0326,"EPHEMERIS_TYPE":0,"CLASSIFICATION_TYPE":"U","NORAD_CAT_ID":33911,"ELEMENT_SET_NO":999,"REV_AT_EPOCH":89931,"BSTAR":0.002265833,"MEAN_MOTION_DOT":0.00016213,"MEAN_MOTION_DDOT":0}]
